[{"OBJECT_NAME":"JILIN-1 05","OBJECT_ID":"2017-074B","EPOCH":"2026-03-09T21:56:30.612480","MEAN_MOTION":15.3245271,"ECCENTRICITY":0.00045948,"INCLINATION":97.4781,"RA_OF_ASC_NODE":173.8936,"ARG_OF_PERICENTER":206.4038,"MEAN_ANOMALY":153.6971,"EPHEMERIS_TYPE":0,"CLASSIFICATION_TYPE":"U","NORAD_CAT_ID":43023,"ELEMENT_SET_NO":999,"REV_AT_EPOCH":45879,"BSTAR":0.00026108793,"MEAN_MOTION_DOT":8.104e-5,"MEAN_MOTION_DDOT":0},{"OBJECT_NAME":"STARLINK-35491","OBJECT_ID":"2025-236AD","EPOCH":"2026-03-09T12:22:19.493760","MEAN_MOTION":15.30202633,"ECCENTRICITY":0.00011205,"INCLINATION":53.1579,"RA_OF_ASC_NODE":104.9837,"ARG_OF_PERICENTER":75.3909,"MEAN_ANOMALY":284.7216,"EPHEMERIS_TYPE":0,"CLASSIFICATION_TYPE":"U","NORAD_CAT_ID":66113,"ELEMENT_SET_NO":999,"REV_AT_EPOCH":2291,"BSTAR":0.0010876448,"MEAN_MOTION_DOT":0.00031995,"MEAN_MOTION_DDOT":0}]
